KUIPER-00008            
1 63724U 25088A   25205.25003472 -.00060047  00000+0 -42857-2 0  9998
2 63724  51.8868  48.4950 0011639  54.1631 137.6971 15.04178208 13789
KUIPER-00009            
1 63725U 25088B   25204.91668981  .00034829  00000+0  15771-2 0  9995
2 63725  51.8760  44.4320 0012194  79.7101   1.0855 15.20498706  5827
KUIPER-00010            
1 63726U 25088C   25204.95263094  .00015982  00000+0  45940-3 0  9997
2 63726  51.8645  43.3936 0009849  66.0730 294.1287 15.35925451 13451
KUIPER-00011            
1 63727U 25088D   25204.84834973  .00015068  00000+0  44011-3 0  9999
2 63727  51.8576  44.1337 0011496  72.8083 287.4160 15.35455599 13575
KUIPER-00012            
1 63728U 25088E   25204.84683534  .00014286  00000+0  41664-3 0  9997
2 63728  51.8565  44.1128 0011598  74.3380 285.8884 15.35550044 13523
KUIPER-00013            
1 63729U 25088F   25204.91668981  .00026872  00000+0  12983-2 0  9990
2 63729  51.8757  45.0010 0007642  51.1109 109.5139 15.18427222  5678
KUIPER-00014            
1 63730U 25088G   25205.25003472 -.00545414  00000+0 -28748-1 0  9993
2 63730  51.8766  44.3452 0009566  72.6236  58.2732 15.17250522 13469
KUIPER-00015            
1 63731U 25088H   25205.15229554 -.00092434  00000+0 -82005-2 0  9990
2 63731  51.8896  52.6437 0010521  58.3099 301.8894 14.96135472 13806
